IRIDIUM 26 [-]          
1 24903U 97043A   24085.86886902  .00001197  00000+0  40354-3 0  9993
2 24903  86.3917 298.7447 0002220  92.3239 267.8212 14.36256091392378
IRIDIUM 22 [-]          
1 24907U 97043E   24085.86019239  .00001121  00000+0  38593-3 0  9997
2 24907  86.3928 301.9211 0002034  86.6627 273.4802 14.35150188392456
DUMMY MASS 1 [-]        
1 24925U 97048A   24085.76950691  .00001496  00000+0  16770-3 0  9995
2 24925  86.3388 342.5415 0004792 309.0542  51.0256 14.86112511438519
IRIDIUM 33 [-]          
1 24946U 97051C   24085.90855308  .00000840  00000+0  29223-3 0  9996
2 24946  86.3897 331.0918 0009978  98.5686 261.6640 14.34295989388477
IRIDIUM 28 [-]          
1 24948U 97051E   24085.73933848  .00001350  00000+0  45315-3 0  9992
2 24948  86.3984 329.6782 0002503  90.8143 269.3341 14.36559693389446
